[{"OBJECT_NAME":"STARLINK-33865","OBJECT_ID":"2025-119Q","EPOCH":"2026-01-21T19:31:31.005120","MEAN_MOTION":15.27558409,"ECCENTRICITY":0.00020043,"INCLINATION":42.9976,"RA_OF_ASC_NODE":211.4812,"ARG_OF_PERICENTER":272.0528,"MEAN_ANOMALY":88.0094,"EPHEMERIS_TYPE":0,"CLASSIFICATION_TYPE":"U","NORAD_CAT_ID":64247,"ELEMENT_SET_NO":999,"REV_AT_EPOCH":3697,"BSTAR":0.001261075,"MEAN_MOTION_DOT":0.00034581,"MEAN_MOTION_DDOT":0},{"OBJECT_NAME":"STARLINK-34234","OBJECT_ID":"2025-119R","EPOCH":"2026-01-22T05:33:26.619840","MEAN_MOTION":15.27581255,"ECCENTRICITY":0.00047984,"INCLINATION":43.005,"RA_OF_ASC_NODE":209.4635,"ARG_OF_PERICENTER":261.8695,"MEAN_ANOMALY":98.1612,"EPHEMERIS_TYPE":0,"CLASSIFICATION_TYPE":"U","NORAD_CAT_ID":64248,"ELEMENT_SET_NO":999,"REV_AT_EPOCH":3706,"BSTAR":0.00096305809,"MEAN_MOTION_DOT":0.00026341,"MEAN_MOTION_DDOT":0},{"OBJECT_NAME":"STARLINK-34256","OBJECT_ID":"2025-119S","EPOCH":"2026-01-22T05:07:34.162176","MEAN_MOTION":15.27557505,"ECCENTRICITY":0.00017313,"INCLINATION":42.9965,"RA_OF_ASC_NODE":209.3245,"ARG_OF_PERICENTER":267.5447,"MEAN_ANOMALY":92.5206,"EPHEMERIS_TYPE":0,"CLASSIFICATION_TYPE":"U","NORAD_CAT_ID":64249,"ELEMENT_SET_NO":999,"REV_AT_EPOCH":3706,"BSTAR":0.00082465966,"MEAN_MOTION_DOT":0.00022485,"MEAN_MOTION_DDOT":0},{"OBJECT_NAME":"STARLINK-34229","OBJECT_ID":"2025-119T","EPOCH":"2026-01-21T19:00:15.160032","MEAN_MOTION":15.27567521,"ECCENTRICITY":0.00026335,"INCLINATION":43.0039,"RA_OF_ASC_NODE":212.1915,"ARG_OF_PERICENTER":275.4806,"MEAN_ANOMALY":84.5745,"EPHEMERIS_TYPE":0,"CLASSIFICATION_TYPE":"U","NORAD_CAT_ID":64250,"ELEMENT_SET_NO":999,"REV_AT_EPOCH":3699,"BSTAR":0.0012059322,"MEAN_MOTION_DOT":0.0003306,"MEAN_MOTION_DDOT":0},{"OBJECT_NAME":"STARLINK-34224","OBJECT_ID":"2025-119U","EPOCH":"2026-01-22T05:02:01.351968","MEAN_MOTION":15.27556716,"ECCENTRICITY":0.00017462,"INCLINATION":42.9978,"RA_OF_ASC_NODE":209.2993,"ARG_OF_PERICENTER":273.7829,"MEAN_ANOMALY":86.2823,"EPHEMERIS_TYPE":0,"CLASSIFICATION_TYPE":"U","NORAD_CAT_ID":64251,"ELEMENT_SET_NO":999,"REV_AT_EPOCH":3706,"BSTAR":0.00088307798,"MEAN_MOTION_DOT":0.00024101,"MEAN_MOTION_DDOT":0},{"OBJECT_NAME":"STARLINK-34215","OBJECT_ID":"2025-119V","EPOCH":"2026-01-22T05:27:55.123776","MEAN_MOTION":15.2756801,"ECCENTRICITY":0.00021677,"INCLINATION":43.0021,"RA_OF_ASC_NODE":209.4382,"ARG_OF_PERICENTER":269.4367,"MEAN_ANOMALY":90.6236,"EPHEMERIS_TYPE":0,"CLASSIFICATION_TYPE":"U","NORAD_CAT_ID":64252,"ELEMENT_SET_NO":999,"REV_AT_EPOCH":3706,"BSTAR":0.00077314867,"MEAN_MOTION_DOT":0.00021067,"MEAN_MOTION_DDOT":0},{"OBJECT_NAME":"STARLINK-33893","OBJECT_ID":"2025-119W","EPOCH":"2026-01-22T05:50:07.399680","MEAN_MOTION":15.27578712,"ECCENTRICITY":0.00022363,"INCLINATION":43.0001,"RA_OF_ASC_NODE":209.5547,"ARG_OF_PERICENTER":260.0728,"MEAN_ANOMALY":99.9871,"EPHEMERIS_TYPE":0,"CLASSIFICATION_TYPE":"U","NORAD_CAT_ID":64253,"ELEMENT_SET_NO":999,"REV_AT_EPOCH":3706,"BSTAR":0.001605246,"MEAN_MOTION_DOT":0.00044175,"MEAN_MOTION_DDOT":0},{"OBJECT_NAME":"STARLINK-34183","OBJECT_ID":"2025-119X","EPOCH":"2026-01-21T19:05:49.641216","MEAN_MOTION":15.27561675,"ECCENTRICITY":0.00017112,"INCLINATION":43.0005,"RA_OF_ASC_NODE":212.214,"ARG_OF_PERICENTER":264.1528,"MEAN_ANOMALY":95.9129,"EPHEMERIS_TYPE":0,"CLASSIFICATION_TYPE":"U","NORAD_CAT_ID":64254,"ELEMENT_SET_NO":999,"REV_AT_EPOCH":3699,"BSTAR":0.0014937239,"MEAN_MOTION_DOT":0.00041048,"MEAN_MOTION_DDOT":0},{"OBJECT_NAME":"STARLINK-34211","OBJECT_ID":"2025-119Y","EPOCH":"2026-01-21T19:11:21.237504","MEAN_MOTION":15.27525034,"ECCENTRICITY":8.052e-5,"INCLINATION":42.9981,"RA_OF_ASC_NODE":212.2392,"ARG_OF_PERICENTER":252.5345,"MEAN_ANOMALY":107.5419,"EPHEMERIS_TYPE":0,"CLASSIFICATION_TYPE":"U","NORAD_CAT_ID":64255,"ELEMENT_SET_NO":999,"REV_AT_EPOCH":3699,"BSTAR":0.0014285001,"MEAN_MOTION_DOT":0.0003919,"MEAN_MOTION_DDOT":0},{"OBJECT_NAME":"STARLINK-34329","OBJECT_ID":"2025-120A","EPOCH":"2026-01-22T06:48:29.273760","MEAN_MOTION":15.30206154,"ECCENTRICITY":0.00015647,"INCLINATION":53.1607,"RA_OF_ASC_NODE":332.0754,"ARG_OF_PERICENTER":68.2331,"MEAN_ANOMALY":291.8836,"EPHEMERIS_TYPE":0,"CLASSIFICATION_TYPE":"U","NORAD_CAT_ID":64256,"ELEMENT_SET_NO":999,"REV_AT_EPOCH":3682,"BSTAR":0.0016143018,"MEAN_MOTION_DOT":0.00047769,"MEAN_MOTION_DDOT":0},{"OBJECT_NAME":"STARLINK-34352","OBJECT_ID":"2025-120B","EPOCH":"2026-01-22T05:43:17.954400","MEAN_MOTION":15.3020622,"ECCENTRICITY":0.00012313,"INCLINATION":53.1608,"RA_OF_ASC_NODE":332.5007,"ARG_OF_PERICENTER":83.0167,"MEAN_ANOMALY":277.0974,"EPHEMERIS_TYPE":0,"CLASSIFICATION_TYPE":"U","NORAD_CAT_ID":64257,"ELEMENT_SET_NO":999,"REV_AT_EPOCH":3675,"BSTAR":0.0014622747,"MEAN_MOTION_DOT":0.0004321,"MEAN_MOTION_DDOT":0},{"OBJECT_NAME":"STARLINK-34308","OBJECT_ID":"2025-120C","EPOCH":"2026-01-22T02:16:57.586080","MEAN_MOTION":15.30201006,"ECCENTRICITY":0.00016953,"INCLINATION":53.1606,"RA_OF_ASC_NODE":333.0291,"ARG_OF_PERICENTER":68.012,"MEAN_ANOMALY":292.1061,"EPHEMERIS_TYPE":0,"CLASSIFICATION_TYPE":"U","NORAD_CAT_ID":64258,"ELEMENT_SET_NO":999,"REV_AT_EPOCH":3673,"BSTAR":0.0014598437,"MEAN_MOTION_DOT":0.0004313,"MEAN_MOTION_DDOT":0},{"OBJECT_NAME":"STARLINK-34306","OBJECT_ID":"2025-120D","EPOCH":"2026-01-22T03:29:44.042496","MEAN_MOTION":15.30244793,"ECCENTRICITY":9.753e-5,"INCLINATION":53.1606,"RA_OF_ASC_NODE":332.6295,"ARG_OF_PERICENTER":41.4811,"MEAN_ANOMALY":318.6264,"EPHEMERIS_TYPE":0,"CLASSIFICATION_TYPE":"U","NORAD_CAT_ID":64259,"ELEMENT_SET_NO":999,"REV_AT_EPOCH":3674,"BSTAR":0.001620002,"MEAN_MOTION_DOT":0.00047998,"MEAN_MOTION_DDOT":0},{"OBJECT_NAME":"STARLINK-34281","OBJECT_ID":"2025-120E","EPOCH":"2026-01-22T07:03:40.676256","MEAN_MOTION":15.30204694,"ECCENTRICITY":0.00015898,"INCLINATION":53.1595,"RA_OF_ASC_NODE":332.1382,"ARG_OF_PERICENTER":124.8147,"MEAN_ANOMALY":235.3004,"EPHEMERIS_TYPE":0,"CLASSIFICATION_TYPE":"U","NORAD_CAT_ID":64260,"ELEMENT_SET_NO":999,"REV_AT_EPOCH":3676,"BSTAR":0.0011238676,"MEAN_MOTION_DOT":0.0003308,"MEAN_MOTION_DDOT":0},{"OBJECT_NAME":"STARLINK-34297","OBJECT_ID":"2025-120F","EPOCH":"2026-01-22T05:34:11.310240","MEAN_MOTION":15.30203795,"ECCENTRICITY":0.0002195,"INCLINATION":53.1609,"RA_OF_ASC_NODE":332.4635,"ARG_OF_PERICENTER":67.962,"MEAN_ANOMALY":292.1614,"EPHEMERIS_TYPE":0,"CLASSIFICATION_TYPE":"U","NORAD_CAT_ID":64261,"ELEMENT_SET_NO":999,"REV_AT_EPOCH":3670,"BSTAR":0.0010465851,"MEAN_MOTION_DOT":0.0003077,"MEAN_MOTION_DDOT":0},{"OBJECT_NAME":"STARLINK-34325","OBJECT_ID":"2025-120G","EPOCH":"2026-01-22T03:02:33.291744","MEAN_MOTION":15.30236545,"ECCENTRICITY":0.00013045,"INCLINATION":53.1617,"RA_OF_ASC_NODE":333.2211,"ARG_OF_PERICENTER":80.1451,"MEAN_ANOMALY":279.9697,"EPHEMERIS_TYPE":0,"CLASSIFICATION_TYPE":"U","NORAD_CAT_ID":64262,"ELEMENT_SET_NO":999,"REV_AT_EPOCH":3678,"BSTAR":0.0015986861,"MEAN_MOTION_DOT":0.00047345,"MEAN_MOTION_DDOT":0}]
