STARLINK-33865          
1 64247U 25119Q   26021.81355330  .00034581  00000+0  12611-2 0  9993
2 64247  42.9976 211.4812 0002004 272.0528  88.0094 15.27558409 36973
STARLINK-34234          
1 64248U 25119R   26022.23155810  .00026341  00000+0  96306-3 0  9991
2 64248  43.0050 209.4635 0004798 261.8695  98.1612 15.27581255 37066
STARLINK-34256          
1 64249U 25119S   26022.21358984  .00022485  00000+0  82466-3 0  9994
2 64249  42.9965 209.3245 0001731 267.5447  92.5206 15.27557505 37066
STARLINK-34229          
1 64250U 25119T   26021.79184213  .00033060  00000+0  12059-2 0  9991
2 64250  43.0039 212.1915 0002633 275.4806  84.5745 15.27567521 36996
STARLINK-34224          
1 64251U 25119U   26022.20973787  .00024101  00000+0  88308-3 0  9998
2 64251  42.9978 209.2993 0001746 273.7829  86.2823 15.27556716 37069
STARLINK-34215          
1 64252U 25119V   26022.22772134  .00021067  00000+0  77315-3 0  9998
2 64252  43.0021 209.4382 0002167 269.4367  90.6236 15.27568010 37069
STARLINK-33893          
1 64253U 25119W   26022.24314120  .00044175  00000+0  16052-2 0  9993
2 64253  43.0001 209.5547 0002236 260.0728  99.9871 15.27578712 37064
STARLINK-34183          
1 64254U 25119X   26021.79571344  .00041048  00000+0  14937-2 0  9992
2 64254  43.0005 212.2140 0001711 264.1528  95.9129 15.27561675 36992
STARLINK-34211          
1 64255U 25119Y   26021.79955136  .00039190  00000+0  14285-2 0  9999
2 64255  42.9981 212.2392 0000805 252.5345 107.5419 15.27525034 36995
STARLINK-34329          
1 64256U 25120A   26022.28367215  .00047769  00000+0  16143-2 0  9998
2 64256  53.1607 332.0754 0001564  68.2331 291.8836 15.30206154 36823
STARLINK-34352          
1 64257U 25120B   26022.23840225  .00043210  00000+0  14623-2 0  9999
2 64257  53.1608 332.5007 0001231  83.0167 277.0974 15.30206220 36759
STARLINK-34308          
1 64258U 25120C   26022.09511095  .00043130  00000+0  14598-2 0  9996
2 64258  53.1606 333.0291 0001695  68.0120 292.1061 15.30201006 36735
STARLINK-34306          
1 64259U 25120D   26022.14564864  .00047998  00000+0  16200-2 0  9993
2 64259  53.1606 332.6295 0000975  41.4811 318.6264 15.30244793 36747
STARLINK-34281          
1 64260U 25120E   26022.29422079  .00033080  00000+0  11239-2 0  9996
2 64260  53.1595 332.1382 0001589 124.8147 235.3004 15.30204694 36763
STARLINK-34297          
1 64261U 25120F   26022.23207535  .00030770  00000+0  10466-2 0  9993
2 64261  53.1609 332.4635 0002195  67.9620 292.1614 15.30203795 36704
STARLINK-34325          
1 64262U 25120G   26022.12677421  .00047345  00000+0  15987-2 0  9996
2 64262  53.1617 333.2211 0001304  80.1451 279.9697 15.30236545 36784
